SWC-1                   
1 68540U 26069C   26092.51428241 -.00154659  00000+0 -17117+1 0  9990
2 68540  28.3462 359.8168 8375109  77.1630 217.7352  1.01595625    08
K-RADCUBE               
1 68541U 26069D   26092.67815972 -.00078411  19505-5 -17218-4 0  9992
2 68541  28.3341 359.8703 8450105  77.6642 243.1767  1.02517944    33
MERIDIAN-M 21L          
1 68571U 26071A   26093.32069436 -.00001265  00000+0  16587-2 0  9999
2 68571  62.7917 238.8364 7241466 284.9481  10.7459  1.98618778    13
FREGAT R/B              
1 68572U 26071B   26093.32132148 -.00001541  00000+0  35052-3 0  9997
2 68572  63.0589 237.9448 7313819 284.9724  10.3188  2.01041412    13
